ONEWEB-0210             
1 48787U 21045W   25361.11038566  .00000274  00000+0  69389-3 0  9993
2 48787  87.9013 293.5142 0002293  64.3138 295.8229 13.15547884221694
ONEWEB-0214             
1 48788U 21045X   25361.11911404  .00000125  00000+0  29802-3 0  9996
2 48788  87.9024 293.5051 0002177  71.1004 289.0362 13.15548935221663
ONEWEB-0221             
1 48789U 21045Y   25361.05017943  .00000053  00000+0  10772-3 0  9991
2 48789  87.9023 293.5322 0001771  68.6883 291.4436 13.15547704221740
ONEWEB-0213             
1 48790U 21045Z   25361.11513946  .00000206  00000+0  51211-3 0  9997
2 48790  87.9005 293.5258 0001922  67.5513 292.5820 13.15547139221815
ONEWEB-0212             
1 48791U 21045AA  25360.86399829  .00000039  00000+0  70821-4 0  9994
2 48791  87.9008 293.5674 0001718  75.4989 284.6332 13.15546502221777
ONEWEB-0227             
1 48792U 21045AB  25360.86320604 -.00000022  00000+0 -93033-4 0  9994
2 48792  87.8999 293.5760 0001740  73.6231 286.5091 13.15546843221723
ONEWEB-0226             
1 48793U 21045AC  25361.08504191  .00000015  00000+0  69097-5 0  9999
2 48793  87.9002 293.5411 0002059  69.1796 290.9555 13.15549194221729
ONEWEB-0224             
1 48794U 21045AD  25361.04859142 -.00000311  00000+0 -85965-3 0  9996
2 48794  87.9008 293.5839 0001034  51.3688 308.7535 13.15544139221646
